[{"OBJECT_NAME":"STARLINK-2588","OBJECT_ID":"2021-038AX","EPOCH":"2026-03-09T22:36:04.296960","MEAN_MOTION":15.15106652,"ECCENTRICITY":0.00059986,"INCLINATION":53.0735,"RA_OF_ASC_NODE":337.743,"ARG_OF_PERICENTER":113.5514,"MEAN_ANOMALY":246.611,"EPHEMERIS_TYPE":0,"CLASSIFICATION_TYPE":"U","NORAD_CAT_ID":48398,"ELEMENT_SET_NO":999,"REV_AT_EPOCH":26860,"BSTAR":0.0020267128,"MEAN_MOTION_DOT":0.00038318,"MEAN_MOTION_DDOT":0},{"OBJECT_NAME":"LEGION 4","OBJECT_ID":"2024-146B","EPOCH":"2026-03-09T20:57:25.515072","MEAN_MOTION":15.16207109,"ECCENTRICITY":0.00094512,"INCLINATION":45.0024,"RA_OF_ASC_NODE":294.7765,"ARG_OF_PERICENTER":105.8895,"MEAN_ANOMALY":254.3026,"EPHEMERIS_TYPE":0,"CLASSIFICATION_TYPE":"U","NORAD_CAT_ID":60453,"ELEMENT_SET_NO":999,"REV_AT_EPOCH":8580,"BSTAR":0.00030530233,"MEAN_MOTION_DOT":5.743e-5,"MEAN_MOTION_DDOT":0}]
